{
  "type": "FeatureCollection",
  "features": [
    {
      "type": "Feature",
      "properties": {
        "norad_id": 33731,
        "name": "FENGYUN 1C DEB",
        "group": "fengyun-1c-debris",
        "lat": 69.05406237764646,
        "lon": -143.48501137831997,
        "alt_km": 851.5884856442426,
        "timestamp": "2025-12-14T11:29:50.347473+00:00",
        "meta_object_name": "FENGYUN 1C DEB",
        "meta_object_id": "1999-025DHU",
        "meta_epoch": "2025-12-12T07:21:42.504480",
        "meta_mean_motion": 13.95336601,
        "meta_eccentricity": 0.01289523,
        "meta_inclination": 99.445,
        "meta_ra_of_asc_node": 8.5135,
        "meta_arg_of_pericenter": 57.2943,
        "meta_mean_anomaly": 304.0576,
        "meta_ephemeris_type": 0,
        "meta_classification_type": "U",
        "meta_norad_cat_id": 33731,
        "meta_element_set_no": 999,
        "meta_rev_at_epoch": 90443,
        "meta_bstar": 0.0016610321,
        "meta_mean_motion_dot": 2.365e-05,
        "meta_mean_motion_ddot": 0,
        "tle_line1": "1 33731U 99025DHU 25346.30674195  .00002365  00000+0  16610-2 0  9998",
        "tle_line2": "2 33731  99.4450   8.5135 0128952  57.2943 304.0576 13.95336601904431"
      },
      "geometry": {
        "type": "Point",
        "coordinates": [
          -143.48501137831997,
          69.05406237764646
        ]
      }
    },
    {
      "type": "Feature",
      "properties": {
        "norad_id": 33733,
        "name": "FENGYUN 1C DEB",
        "group": "fengyun-1c-debris",
        "lat": -50.77719775721594,
        "lon": 85.20934321865735,
        "alt_km": 841.3977383338315,
        "timestamp": "2025-12-14T11:29:50.347483+00:00",
        "meta_object_name": "FENGYUN 1C DEB",
        "meta_object_id": "1999-025DHW",
        "meta_epoch": "2025-12-08T04:50:49.402752",
        "meta_mean_motion": 14.30867233,
        "meta_eccentricity": 0.00809024,
        "meta_inclination": 99.099,
        "meta_ra_of_asc_node": 67.3183,
        "meta_arg_of_pericenter": 183.3026,
        "meta_mean_anomaly": 206.7882,
        "meta_ephemeris_type": 0,
        "meta_classification_type": "U",
        "meta_norad_cat_id": 33733,
        "meta_element_set_no": 999,
        "meta_rev_at_epoch": 90383,
        "meta_bstar": 0.0048281586,
        "meta_mean_motion_dot": 0.00013108,
        "meta_mean_motion_ddot": 0,
        "tle_line1": "1 33733U 99025DHW 25342.20196068  .00013108  00000+0  48282-2 0  9990",
        "tle_line2": "2 33733  99.0990  67.3183 0080902 183.3026 206.7882 14.30867233903830"
      },
      "geometry": {
        "type": "Point",
        "coordinates": [
          85.20934321865735,
          -50.77719775721594
        ]
      }
    },
    {
      "type": "Feature",
      "properties": {
        "norad_id": 33737,
        "name": "FENGYUN 1C DEB",
        "group": "fengyun-1c-debris",
        "lat": -31.09298107930927,
        "lon": -172.67982315250336,
        "alt_km": 829.2495001191928,
        "timestamp": "2025-12-14T11:29:50.347493+00:00",
        "meta_object_name": "FENGYUN 1C DEB",
        "meta_object_id": "1999-025DJA",
        "meta_epoch": "2025-12-13T11:49:27.823296",
        "meta_mean_motion": 14.03003696,
        "meta_eccentricity": 0.01283923,
        "meta_inclination": 98.338,
        "meta_ra_of_asc_node": 181.3421,
        "meta_arg_of_pericenter": 281.0011,
        "meta_mean_anomaly": 107.3159,
        "meta_ephemeris_type": 0,
        "meta_classification_type": "U",
        "meta_norad_cat_id": 33737,
        "meta_element_set_no": 999,
        "meta_rev_at_epoch": 88751,
        "meta_bstar": 0.0018861544,
        "meta_mean_motion_dot": 3.11e-05,
        "meta_mean_motion_ddot": 0,
        "tle_line1": "1 33737U 99025DJA 25347.49268314  .00003110  00000+0  18862-2 0  9997",
        "tle_line2": "2 33737  98.3380 181.3421 0128392 281.0011 107.3159 14.03003696887511"
      },
      "geometry": {
        "type": "Point",
        "coordinates": [
          -172.67982315250336,
          -31.09298107930927
        ]
      }
    },
    {
      "type": "Feature",
      "properties": {
        "norad_id": 33738,
        "name": "FENGYUN 1C DEB",
        "group": "fengyun-1c-debris",
        "lat": -44.02542206922904,
        "lon": -140.4513146662866,
        "alt_km": 1020.0877341505038,
        "timestamp": "2025-12-14T11:29:50.347505+00:00",
        "meta_object_name": "FENGYUN 1C DEB",
        "meta_object_id": "1999-025DJB",
        "meta_epoch": "2025-12-13T10:29:17.351232",
        "meta_mean_motion": 13.99533166,
        "meta_eccentricity": 0.01846825,
        "meta_inclination": 99.152,
        "meta_ra_of_asc_node": 47.4707,
        "meta_arg_of_pericenter": 19.5198,
        "meta_mean_anomaly": 358.8297,
        "meta_ephemeris_type": 0,
        "meta_classification_type": "U",
        "meta_norad_cat_id": 33738,
        "meta_element_set_no": 999,
        "meta_rev_at_epoch": 89246,
        "meta_bstar": 0.00072007119,
        "meta_mean_motion_dot": 1.172e-05,
        "meta_mean_motion_ddot": 0,
        "tle_line1": "1 33738U 99025DJB 25347.43700638  .00001172  00000+0  72007-3 0  9990",
        "tle_line2": "2 33738  99.1520  47.4707 0184682  19.5198 358.8297 13.99533166892460"
      },
      "geometry": {
        "type": "Point",
        "coordinates": [
          -140.4513146662866,
          -44.02542206922904
        ]
      }
    },
    {
      "type": "Feature",
      "properties": {
        "norad_id": 33740,
        "name": "FENGYUN 1C DEB",
        "group": "fengyun-1c-debris",
        "lat": -16.13602261131006,
        "lon": 3.8719378247053804,
        "alt_km": 857.3363813953338,
        "timestamp": "2025-12-14T11:29:50.347516+00:00",
        "meta_object_name": "FENGYUN 1C DEB",
        "meta_object_id": "1999-025DJD",
        "meta_epoch": "2025-12-13T06:40:10.991136",
        "meta_mean_motion": 14.12323086,
        "meta_eccentricity": 0.0002062,
        "meta_inclination": 98.6874,
        "meta_ra_of_asc_node": 0.1725,
        "meta_arg_of_pericenter": 128.1164,
        "meta_mean_anomaly": 232.0195,
        "meta_ephemeris_type": 0,
        "meta_classification_type": "U",
        "meta_norad_cat_id": 33740,
        "meta_element_set_no": 999,
        "meta_rev_at_epoch": 90154,
        "meta_bstar": 0.00021078194,
        "meta_mean_motion_dot": 3.46e-06,
        "meta_mean_motion_ddot": 0,
        "tle_line1": "1 33740U 99025DJD 25347.27790499  .00000346  00000+0  21078-3 0  9993",
        "tle_line2": "2 33740  98.6874   0.1725 0002062 128.1164 232.0195 14.12323086901540"
      },
      "geometry": {
        "type": "Point",
        "coordinates": [
          3.8719378247053804,
          -16.13602261131006
        ]
      }
    },
    {
      "type": "Feature",
      "properties": {
        "norad_id": 33741,
        "name": "FENGYUN 1C DEB",
        "group": "fengyun-1c-debris",
        "lat": 5.421405207633224,
        "lon": -98.82589288272983,
        "alt_km": 841.4716770495397,
        "timestamp": "2025-12-14T11:29:50.347526+00:00",
        "meta_object_name": "FENGYUN 1C DEB",
        "meta_object_id": "1999-025DJE",
        "meta_epoch": "2025-12-11T17:02:33.884160",
        "meta_mean_motion": 14.09800976,
        "meta_eccentricity": 0.01275257,
        "meta_inclination": 98.5648,
        "meta_ra_of_asc_node": 259.3576,
        "meta_arg_of_pericenter": 91.2636,
        "meta_mean_anomaly": 270.3148,
        "meta_ephemeris_type": 0,
        "meta_classification_type": "U",
        "meta_norad_cat_id": 33741,
        "meta_element_set_no": 999,
        "meta_rev_at_epoch": 56848,
        "meta_bstar": 0.0031597361,
        "meta_mean_motion_dot": 5.952e-05,
        "meta_mean_motion_ddot": 0,
        "tle_line1": "1 33741U 99025DJE 25345.71011440  .00005952  00000+0  31597-2 0  9997",
        "tle_line2": "2 33741  98.5648 259.3576 0127525  91.2636 270.3148 14.09800976568486"
      },
      "geometry": {
        "type": "Point",
        "coordinates": [
          -98.82589288272983,
          5.421405207633224
        ]
      }
    },
    {
      "type": "Feature",
      "properties": {
        "norad_id": 33745,
        "name": "FENGYUN 1C DEB",
        "group": "fengyun-1c-debris",
        "lat": 79.87205351954614,
        "lon": -38.2898585272722,
        "alt_km": 848.8722985728691,
        "timestamp": "2025-12-14T11:29:50.347538+00:00",
        "meta_object_name": "FENGYUN 1C DEB",
        "meta_object_id": "1999-025DJJ",
        "meta_epoch": "2025-12-13T01:19:37.273728",
        "meta_mean_motion": 14.22320724,
        "meta_eccentricity": 0.00541028,
        "meta_inclination": 99.1146,
        "meta_ra_of_asc_node": 24.2285,
        "meta_arg_of_pericenter": 265.2923,
        "meta_mean_anomaly": 94.2073,
        "meta_ephemeris_type": 0,
        "meta_classification_type": "U",
        "meta_norad_cat_id": 33745,
        "meta_element_set_no": 999,
        "meta_rev_at_epoch": 66006,
        "meta_bstar": 0.0019074216,
        "meta_mean_motion_dot": 4.259e-05,
        "meta_mean_motion_ddot": 0,
        "tle_line1": "1 33745U 99025DJJ 25347.05529252  .00004259  00000+0  19074-2 0  9990",
        "tle_line2": "2 33745  99.1146  24.2285 0054102 265.2923  94.2073 14.22320724660068"
      },
      "geometry": {
        "type": "Point",
        "coordinates": [
          -38.2898585272722,
          79.87205351954614
        ]
      }
    }
  ]
}